ORBCOMM FM20            
1 25416U 98046D   25085.81100781  .00003375  00000+0  11758-2 0  9992
2 25416  44.9929 211.3233 0002195 216.3516 143.7182 14.36969744392411
ORBCOMM FM16            
1 25417U 98046E   25085.83293638  .00004715  00000+0  15714-2 0  9994
2 25417  44.9924 203.8479 0006021 235.2022 124.8260 14.38574012392395
ORBCOMM FM15            
1 25418U 98046F   25085.78898568  .00004359  00000+0  14665-2 0  9990
2 25418  44.9954 208.9576 0005501 234.5668 125.4666 14.38232710392385
ORBCOMM FM14            
1 25419U 98046G   25085.75750133  .00003867  00000+0  12976-2 0  9999
2 25419  44.9943 207.5746 0004510 227.3580 132.6888 14.38565957392344
ORBCOMM FM13            
1 25420U 98046H   25085.73222006  .00003428  00000+0  11829-2 0  9991
2 25420  44.9960 214.8877 0006467 219.7730 140.2644 14.37394612391370
ORBCOMM FM21            
1 25475U 98053A   25086.06836028  .00003618  00000+0  12535-2 0  9997
2 25475  45.0077 298.3214 0001355 150.2620 209.8305 14.37108803385768
ORBCOMM FM22            
1 25476U 98053B   25085.88517883  .00003805  00000+0  12906-2 0  9992
2 25476  45.0067 294.6853 0003203 160.3552 199.7421 14.38066123385424
ORBCOMM FM23            
1 25477U 98053C   25085.93980974  .00003432  00000+0  11879-2 0  9998
2 25477  45.0080 301.1614 0002300 153.3966 206.7000 14.37259517385564
